CCSDS_OEM_VERS = 2.0
CREATION_DATE = 2026-07-04T00:00:00
ORIGINATOR = pdb-spacecraft-simulator

META_START
OBJECT_NAME = dvgl-hifi-EO-01/EO-01
OBJECT_ID = EO-01
CENTER_NAME = EARTH
REF_FRAME = EME2000
COMMENT frame is the pdb sim ECI axis set
TIME_SYSTEM = UTC
START_TIME = 2026-07-05T00:00:00.000Z
STOP_TIME = 2026-07-06T00:00:00.000Z
META_STOP
2026-07-05T15:25:00.000Z 2122.696188 -1929.233286 6318.173258
2026-07-05T15:26:00.000Z 2310.176500 -2295.938913 6126.437581
2026-07-05T15:27:00.000Z 2487.775270 -2652.823829 5908.424775
2026-07-05T15:28:00.000Z 2654.727038 -2998.355314 5665.056141
2026-07-05T15:29:00.000Z 2810.310827 -3331.047280 5397.362265
2026-07-05T15:30:00.000Z 2953.853329 -3649.466707 5106.479006
2026-07-05T15:31:00.000Z 3084.731930 -3952.239906 4793.643007
2026-07-05T15:32:00.000Z 3202.377547 -4238.058597 4460.186746
2026-07-05T15:33:00.000Z 3306.277255 -4505.685760 4107.533123
2026-07-05T15:34:00.000Z 3395.976701 -4753.961220 3737.189606
2026-07-05T15:35:00.000Z 3471.082275 -4981.806956 3350.741949
2026-07-05T15:36:00.000Z 3531.263025 -5188.232067 2949.847505
2026-07-05T15:37:00.000Z 3576.252309 -5372.337400 2536.228151
2026-07-05T15:38:00.000Z 3605.849150 -5533.319776 2111.662871
2026-07-05T15:39:00.000Z 3619.919312 -5670.475805 1677.980005
2026-07-05T15:40:00.000Z 3618.396048 -5783.205253 1237.049228
2026-07-05T15:41:00.000Z 3601.280545 -5871.013931 790.773283
2026-07-05T15:42:00.000Z 3568.642040 -5933.516101 341.079508
2026-07-05T15:43:00.000Z 3520.617610 -5970.436355 -110.088774
2026-07-05T15:44:00.000Z 3457.411629 -5981.610977 -560.780982
2026-07-05T15:45:00.000Z 3379.294903 -5966.988757 -1009.048047
2026-07-05T15:46:00.000Z 3286.603478 -5926.631265 -1452.951188
2026-07-05T15:47:00.000Z 3179.737130 -5860.712571 -1890.570636
2026-07-05T15:48:00.000Z 3059.157552 -5769.518430 -2320.014263
2026-07-05T15:49:00.000Z 2925.386239 -5653.444919 -2739.426054
2026-07-05T15:50:00.000Z 2779.002099 -5512.996553 -3146.994386
2026-07-05T15:51:00.000Z 2620.638793 -5348.783892 -3540.960068
2026-07-05T15:52:00.000Z 2450.981832 -5161.520649 -3919.624090
2026-07-05T15:53:00.000Z 2270.765436 -4952.020343 -4281.355059
2026-07-05T15:54:00.000Z 2080.769203 -4721.192490 -4624.596268
2026-07-05T15:55:00.000Z 1881.814570 -4470.038393 -4947.872388
2026-07-05T15:56:00.000Z 1674.761121 -4199.646535 -5249.795738
2026-07-05T15:57:00.000Z 1460.502752 -3911.187622 -5529.072124
2026-07-05T15:58:00.000Z 1239.963700 -3605.909288 -5784.506218
2026-07-05T15:59:00.000Z 1014.094482 -3285.130518 -6015.006475
2026-07-05T16:00:00.000Z 783.867743 -2950.235799 -6219.589559
2026-07-05T16:01:00.000Z 550.274046 -2602.669035 -6397.384290
2026-07-05T16:02:00.000Z 314.317610 -2243.927259 -6547.635089
2026-07-05T16:03:00.000Z 77.012024 -1875.554168 -6669.704929
2026-07-05T16:04:00.000Z -160.624052 -1499.133503 -6763.077789
2026-07-05T16:05:00.000Z -397.571189 -1116.282312 -6827.360602
2026-07-05T16:06:00.000Z -632.813465 -728.644102 -6862.284711
2026-07-05T16:07:00.000Z -865.342718 -337.881919 -6867.706829
2026-07-05T16:08:00.000Z -1094.162757 54.328627 -6843.609498
2026-07-05T16:09:00.000Z -1318.293507 446.306374 -6790.101061
2026-07-05T16:10:00.000Z -1536.775099 836.371631 -6707.415145
2026-07-05T16:11:00.000Z -1748.671873 1222.853192 -6595.909649
2026-07-05T16:12:00.000Z -1953.076288 1604.095323 -6456.065248
2026-07-05T16:13:00.000Z -2149.112730 1978.464694 -6288.483416
2026-07-05T16:14:00.000Z -2335.941199 2344.357239 -6093.883966
2026-07-05T16:15:00.000Z -2512.760872 2700.204921 -5873.102101
2026-07-05T16:16:00.000Z -2678.813507 3044.482371 -5627.085008
2026-07-05T16:17:00.000Z -2833.386705 3375.713385 -5356.887964
2026-07-05T16:18:00.000Z -2975.816984 3692.477243 -5063.669995
2026-07-05T16:19:00.000Z -3105.492667 3993.414832 -4748.689068
2026-07-05T16:20:00.000Z -3221.856577 4277.234537 -4413.296851
2026-07-05T16:21:00.000Z -3324.408495 4542.717869 -4058.933045
2026-07-05T16:22:00.000Z -3412.707398 4788.724819 -3687.119297
2026-07-05T16:23:00.000Z -3486.373444 5014.198877 -3299.452736
2026-07-05T16:24:00.000Z -3545.089696 5218.171722 -2897.599140
2026-07-05T16:25:00.000Z -3588.603571 5399.767524 -2483.285761
2026-07-05T16:26:00.000Z -3616.728011 5558.206860 -2058.293850
2026-07-05T16:27:00.000Z -3629.342350 5692.810190 -1624.450914
2026-07-05T16:28:00.000Z -3626.392883 5803.000895 -1183.622726
2026-07-05T16:29:00.000Z -3607.893138 5888.307847 -737.705156
2026-07-05T16:30:00.000Z -3573.923817 5948.367491 -288.615842
2026-07-05T16:31:00.000Z -3524.632446 5982.925432 161.714248
2026-07-05T16:32:00.000Z -3460.232698 5991.837511 611.349310
2026-07-05T16:33:00.000Z -3381.003424 5975.070376 1058.357215
2026-07-05T16:34:00.000Z -3287.287364 5932.701525 1500.817996
2026-07-05T16:35:00.000Z -3179.489587 5864.918848 1936.832252
2026-07-05T16:36:00.000Z -3058.075630 5772.019655 2364.529436
2026-07-05T16:37:00.000Z -2923.569378 5654.409203 2782.075974
2026-07-05T16:38:00.000Z -2776.550680 5512.598748 3187.683187
2026-07-05T16:39:00.000Z -2617.652732 5347.203117 3579.614963
2026-07-05T16:40:00.000Z -2447.559229 5158.937837 3956.195157
2026-07-05T16:41:00.000Z -2267.001316 4948.615831 4315.814675
2026-07-05T16:42:00.000Z -2076.754344 4717.143717 4656.938223
2026-07-05T16:43:00.000Z -1877.634465 4465.517714 4978.110690
2026-07-05T16:44:00.000Z -1670.495071 4194.819206 5277.963144
2026-07-05T16:45:00.000Z -1456.223101 3906.209974 5555.218429
2026-07-05T16:46:00.000Z -1235.735236 3600.927122 5808.696332
2026-07-05T16:47:00.000Z -1009.973998 3280.277743 6037.318336
2026-07-05T16:48:00.000Z -779.903767 2945.633319 6240.111912
2026-07-05T16:49:00.000Z -546.506739 2598.423915 6416.214381
2026-07-05T16:50:00.000Z -310.778833 2240.132165 6564.876319
2026-07-05T16:51:00.000Z -73.725562 1872.287086 6685.464500
2026-07-05T16:52:00.000Z 163.642111 1496.457741 6777.464392
2026-07-05T16:53:00.000Z 400.311925 1114.246766 6840.482186
2026-07-05T16:54:00.000Z 635.274476 727.283787 6874.246372
2026-07-05T16:55:00.000Z 867.527348 337.218748 6878.608849
2026-07-05T16:56:00.000Z 1096.079221 -54.284844 6853.545575
2026-07-05T16:57:00.000Z 1319.953943 -445.556721 6799.156754
2026-07-05T16:58:00.000Z 1538.194546 -834.926702 6715.666557
2026-07-05T16:59:00.000Z 1749.867213 -1220.731559 6603.422379
2026-07-05T17:00:00.000Z 1954.065164 -1601.321878 6462.893618
2026-07-05T17:01:00.000Z 2149.912462 -1975.068915 6294.669992
2026-07-05T17:02:00.000Z 2336.567722 -2340.371396 6099.459370
2026-07-05T17:03:00.000Z 2513.227713 -2695.662268 5878.085133
2026-07-05T17:04:00.000Z 2679.130829 -3039.415359 5631.483056
2026-07-05T17:05:00.000Z 2833.560423 -3370.151926 5360.697706
2026-07-05T17:06:00.000Z 2975.847988 -3686.447064 5066.878369
2026-07-05T17:07:00.000Z 3105.376162 -3986.935951 4751.274499
2026-07-05T17:08:00.000Z 3221.581544 -4270.319892 4415.230709
2026-07-05T17:09:00.000Z 3323.957308 -4535.372130 4060.181300
2026-07-05T17:10:00.000Z 3412.055584 -4780.943404 3687.644348
2026-07-05T17:11:00.000Z 3485.489608 -5005.967202 3299.215366
2026-07-05T17:12:00.000Z 3543.935608 -5209.464695 2896.560567
2026-07-05T17:13:00.000Z 3587.134421 -5390.549301 2481.409743
2026-07-05T17:14:00.000Z 3614.892825 -5548.430867 2055.548796
2026-07-05T17:15:00.000Z 3627.084565 -5682.419418 1620.811956
2026-07-05T17:16:00.000Z 3623.651075 -5791.928469 1179.073721
2026-07-05T17:17:00.000Z 3604.601879 -5876.477850 732.240557
2026-07-05T17:18:00.000Z 3570.014672 -5935.696037 282.242412
2026-07-05T17:19:00.000Z 3520.035059 -5969.321978 -168.975919
2026-07-05T17:20:00.000Z 3454.875982 -5977.206370 -619.463529
2026-07-05T17:21:00.000Z 3374.816804 -5959.312414 -1067.272172
2026-07-05T17:22:00.000Z 3280.202080 -5915.716010 -1510.465036
2026-07-05T17:23:00.000Z 3171.440006 -5846.605416 -1947.125457
2026-07-05T17:24:00.000Z 3049.000560 -5752.280356 -2375.365532
2026-07-05T17:25:00.000Z 2913.413354 -5633.150592 -2793.334567
2026-07-05T17:26:00.000Z 2765.265204 -5489.733978 -3199.227330
2026-07-05T17:27:00.000Z 2605.197432 -5322.653999 -3591.292052
2026-07-05T17:28:00.000Z 2433.902928 -5132.636824 -3967.838138
2026-07-05T17:29:00.000Z 2252.122986 -4920.507898 -4327.243558
2026-07-05T17:30:00.000Z 2060.643925 -4687.188085 -4667.961868
2026-07-05T17:31:00.000Z 1860.293540 -4433.689406 -4988.528848
2026-07-05T17:32:00.000Z 1651.937374 -4161.110389 -5287.568714
2026-07-05T17:33:00.000Z 1436.474860 -3870.631070 -5563.799901
2026-07-05T17:34:00.000Z 1214.835336 -3563.507666 -5816.040381
2026-07-05T17:35:00.000Z 987.973958 -3241.066961 -6043.212513
2026-07-05T17:36:00.000Z 756.867536 -2904.700433 -6244.347411
2026-07-05T17:37:00.000Z 522.510311 -2555.858143 -6418.588822
2026-07-05T17:38:00.000Z 285.909676 -2196.042427 -6565.196507
2026-07-05T17:39:00.000Z 48.081887 -1826.801418 -6683.549127
2026-07-05T17:40:00.000Z -189.952251 -1449.722410 -6773.146627
2026-07-05T17:41:00.000Z -427.171685 -1066.425113 -6833.612126
2026-07-05T17:42:00.000Z -662.559400 -678.554796 -6864.693301
2026-07-05T17:43:00.000Z -895.106675 -287.775370 -6866.263284
2026-07-05T17:44:00.000Z -1123.817286 104.237597 -6838.321058
2026-07-05T17:45:00.000Z -1347.711664 495.803879 -6780.991363
2026-07-05T17:46:00.000Z -1565.830974 885.245619 -6694.524111
2026-07-05T17:47:00.000Z -1777.241116 1270.894331 -6579.293317
2026-07-05T17:48:00.000Z -1981.036631 1651.097874 -6435.795538
2026-07-05T17:49:00.000Z -2176.344501 2024.227378 -6264.647829
2026-07-05T17:50:00.000Z -2362.327830 2388.684083 -6066.585220
2026-07-05T17:51:00.000Z -2538.189388 2742.906083 -5842.457713
2026-07-05T17:52:00.000Z -2703.175014 3085.374948 -5593.226804
2026-07-05T17:53:00.000Z -2856.576853 3414.622194 -5319.961538
2026-07-05T17:54:00.000Z -2997.736417 3729.235571 -5023.834100
2026-07-05T17:55:00.000Z -3126.047461 4027.865157 -4706.114955
2026-07-05T17:56:00.000Z -3240.958640 4309.229210 -4368.167551
2026-07-05T17:57:00.000Z -3341.975962 4572.119763 -4011.442593
2026-07-05T17:58:00.000Z -3428.664986 4815.407926 -3637.471910
2026-07-05T17:59:00.000Z -3500.652791 5038.048870 -3247.861941
